STARLINK-36059          
1 66904U 25283AC  25358.91670139 -.01961908  00000+0 -23827-1 0  9992
2 66904  53.1599  12.9821 0001122  75.5664 329.6393 15.63260982  4383
STARLINK-36075          
1 66905U 25283AD  25358.91670139 -.01960718  00000+0 -23810-1 0  9993
2 66905  53.1598  12.9785 0001257  75.4712 331.6496 15.63260723  4384
1998-067XS              
1 66906U 98067XS  25358.52123718  .00030459  00000+0  51726-3 0  9993
2 66906  51.6318  83.9644 0002790 262.1551  97.9122 15.51195693  3443
1998-067XT              
1 66907U 98067XT  25358.44440007  .00067981  00000+0  10726-2 0  9992
2 66907  51.6313  84.2012 0003885 298.2919  61.7678 15.52879993  3433
1998-067XU              
1 66908U 98067XU  25358.44335423  .00067317  00000+0  10586-2 0  9995
2 66908  51.6323  84.1936 0003863 296.7785  63.2809 15.52977314  3438
SILVERSAT               
1 66909U 98067XV  25358.50619156  .00074602  00000+0  11618-2 0  9993
2 66909  51.6310  83.8633 0003824 300.8028  59.2585 15.53202951  3445
1998-067XW              
1 66910U 98067XW  25358.63318828  .00065339  00000+0  10216-2 0  9991
2 66910  51.6312  83.2108 0003874 273.1727  86.8820 15.53149596  3468
1998-067XX              
1 66911U 98067XX  25358.50087995  .00077903  00000+0  11938-2 0  9998
2 66911  51.6307  83.8279 0003616 280.2913  79.7669 15.53629314  3438
1998-067XY              
1 66912U 98067XY  25358.51324510  .00053773  00000+0  87040-3 0  9994
2 66912  51.6319  83.9109 0003894 289.4763  70.5806 15.52269671  3434
2025-284A               
1 66913U 25284A   25357.10748193  .00008748  00000+0  55264-3 0  9992
2 66913  80.4035 116.7336 0013475 259.6514 100.3189 15.08893564  2694
2025-284B               
1 66914U 25284B   25350.28554881  .00008068  00000+0  38445-3 0  9991
2 66914  80.4045 125.2713 0008179 234.9626 125.0834 15.18985981  1668
HULIANWANG DIGUI-105    
1 66915U 25285A   25358.94766317  .00000042  00000+0  12219-3 0  9998
2 66915  50.0055  67.5612 0008121 323.4779  36.5571 14.03719791  2627
